[{"OBJECT_NAME":"ONEWEB-0675","OBJECT_ID":"2023-029AQ","EPOCH":"2026-05-26T23:29:05.898336","MEAN_MOTION":13.19726337,"ECCENTRICITY":0.0001766,"INCLINATION":87.9151,"RA_OF_ASC_NODE":309.2054,"ARG_OF_PERICENTER":103.9614,"MEAN_ANOMALY":256.1716,"EPHEMERIS_TYPE":0,"CLASSIFICATION_TYPE":"U","NORAD_CAT_ID":55834,"ELEMENT_SET_NO":999,"REV_AT_EPOCH":15612,"BSTAR":-0.00020312,"MEAN_MOTION_DOT":-6.8e-07,"MEAN_MOTION_DDOT":0.0},{"OBJECT_NAME":"ONEWEB-0720","OBJECT_ID":"2023-029AR","EPOCH":"2026-05-26T23:17:42.952128","MEAN_MOTION":13.19726329,"ECCENTRICITY":0.0001524,"INCLINATION":87.9151,"RA_OF_ASC_NODE":309.2072,"ARG_OF_PERICENTER":87.9103,"MEAN_ANOMALY":272.2204,"EPHEMERIS_TYPE":0,"CLASSIFICATION_TYPE":"U","NORAD_CAT_ID":55835,"ELEMENT_SET_NO":999,"REV_AT_EPOCH":15604,"BSTAR":-8.521800000000001e-05,"MEAN_MOTION_DOT":-2.1e-07,"MEAN_MOTION_DDOT":0.0},{"OBJECT_NAME":"ONEWEB-0537","OBJECT_ID":"2023-043A","EPOCH":"2026-05-27T07:05:25.032768","MEAN_MOTION":13.16593379,"ECCENTRICITY":0.0002104,"INCLINATION":87.9103,"RA_OF_ASC_NODE":232.9197,"ARG_OF_PERICENTER":104.7658,"MEAN_ANOMALY":255.3706,"EPHEMERIS_TYPE":0,"CLASSIFICATION_TYPE":"U","NORAD_CAT_ID":56046,"ELEMENT_SET_NO":999,"REV_AT_EPOCH":15621,"BSTAR":4.1867e-05,"MEAN_MOTION_DOT":2.9e-07,"MEAN_MOTION_DDOT":0.0},{"OBJECT_NAME":"ONEWEB-0538","OBJECT_ID":"2023-043B","EPOCH":"2026-05-27T06:56:18.156192","MEAN_MOTION":13.16593147,"ECCENTRICITY":0.0001871,"INCLINATION":87.9105,"RA_OF_ASC_NODE":232.9229,"ARG_OF_PERICENTER":107.368,"MEAN_ANOMALY":252.7655,"EPHEMERIS_TYPE":0,"CLASSIFICATION_TYPE":"U","NORAD_CAT_ID":56047,"ELEMENT_SET_NO":999,"REV_AT_EPOCH":15622,"BSTAR":0.00025639,"MEAN_MOTION_DOT":1.11e-06,"MEAN_MOTION_DDOT":0.0},{"OBJECT_NAME":"ONEWEB-0546","OBJECT_ID":"2023-043C","EPOCH":"2026-05-27T06:38:03.994368","MEAN_MOTION":13.16593648,"ECCENTRICITY":0.0002545,"INCLINATION":87.9106,"RA_OF_ASC_NODE":232.9249,"ARG_OF_PERICENTER":111.6366,"MEAN_ANOMALY":248.5036,"EPHEMERIS_TYPE":0,"CLASSIFICATION_TYPE":"U","NORAD_CAT_ID":56048,"ELEMENT_SET_NO":999,"REV_AT_EPOCH":15621,"BSTAR":-0.0001965,"MEAN_MOTION_DOT":-6.2e-07,"MEAN_MOTION_DDOT":0.0},{"OBJECT_NAME":"ONEWEB-0547","OBJECT_ID":"2023-043D","EPOCH":"2026-05-27T06:43:29.789760","MEAN_MOTION":13.21824467,"ECCENTRICITY":0.0001792,"INCLINATION":87.9256,"RA_OF_ASC_NODE":248.1329,"ARG_OF_PERICENTER":101.2544,"MEAN_ANOMALY":258.8792,"EPHEMERIS_TYPE":0,"CLASSIFICATION_TYPE":"U","NORAD_CAT_ID":56049,"ELEMENT_SET_NO":999,"REV_AT_EPOCH":15546,"BSTAR":0.00016031999999999998,"MEAN_MOTION_DOT":7.9e-07,"MEAN_MOTION_DDOT":0.0},{"OBJECT_NAME":"ONEWEB-0548","OBJECT_ID":"2023-043E","EPOCH":"2026-05-27T07:13:24.677184","MEAN_MOTION":13.16595046,"ECCENTRICITY":0.000231,"INCLINATION":87.9103,"RA_OF_ASC_NODE":232.9173,"ARG_OF_PERICENTER":90.9239,"MEAN_ANOMALY":269.2157,"EPHEMERIS_TYPE":0,"CLASSIFICATION_TYPE":"U","NORAD_CAT_ID":56050,"ELEMENT_SET_NO":999,"REV_AT_EPOCH":15621,"BSTAR":0.00024471000000000003,"MEAN_MOTION_DOT":1.06e-06,"MEAN_MOTION_DDOT":0.0},{"OBJECT_NAME":"ONEWEB-0549","OBJECT_ID":"2023-043F","EPOCH":"2026-05-27T06:35:01.585824","MEAN_MOTION":13.21827619,"ECCENTRICITY":0.0001715,"INCLINATION":87.9251,"RA_OF_ASC_NODE":248.1419,"ARG_OF_PERICENTER":109.2024,"MEAN_ANOMALY":250.9296,"EPHEMERIS_TYPE":0,"CLASSIFICATION_TYPE":"U","NORAD_CAT_ID":56051,"ELEMENT_SET_NO":999,"REV_AT_EPOCH":15546,"BSTAR":-0.00023605000000000002,"MEAN_MOTION_DOT":-8.4e-07,"MEAN_MOTION_DDOT":0.0},{"OBJECT_NAME":"ONEWEB-0550","OBJECT_ID":"2023-043G","EPOCH":"2026-05-27T06:15:40.058784","MEAN_MOTION":13.21824156,"ECCENTRICITY":0.0002031,"INCLINATION":87.9255,"RA_OF_ASC_NODE":248.1419,"ARG_OF_PERICENTER":94.0495,"MEAN_ANOMALY":266.0871,"EPHEMERIS_TYPE":0,"CLASSIFICATION_TYPE":"U","NORAD_CAT_ID":56052,"ELEMENT_SET_NO":999,"REV_AT_EPOCH":15546,"BSTAR":-7.607600000000001e-05,"MEAN_MOTION_DOT":-1.8e-07,"MEAN_MOTION_DDOT":0.0},{"OBJECT_NAME":"ONEWEB-0551","OBJECT_ID":"2023-043H","EPOCH":"2026-05-27T05:44:50.119872","MEAN_MOTION":13.15548716,"ECCENTRICITY":0.0001595,"INCLINATION":87.8991,"RA_OF_ASC_NODE":263.4006,"ARG_OF_PERICENTER":104.9013,"MEAN_ANOMALY":255.2295,"EPHEMERIS_TYPE":0,"CLASSIFICATION_TYPE":"U","NORAD_CAT_ID":56053,"ELEMENT_SET_NO":999,"REV_AT_EPOCH":15364,"BSTAR":0.00036417,"MEAN_MOTION_DOT":1.5e-06,"MEAN_MOTION_DDOT":0.0},{"OBJECT_NAME":"ONEWEB-0552","OBJECT_ID":"2023-043J","EPOCH":"2026-05-27T06:08:24.666720","MEAN_MOTION":13.21826387,"ECCENTRICITY":0.0001812,"INCLINATION":87.9252,"RA_OF_ASC_NODE":248.1489,"ARG_OF_PERICENTER":95.7235,"MEAN_ANOMALY":264.4105,"EPHEMERIS_TYPE":0,"CLASSIFICATION_TYPE":"U","NORAD_CAT_ID":56054,"ELEMENT_SET_NO":999,"REV_AT_EPOCH":15546,"BSTAR":0.00031971,"MEAN_MOTION_DOT":1.45e-06,"MEAN_MOTION_DDOT":0.0},{"OBJECT_NAME":"ONEWEB-0553","OBJECT_ID":"2023-043K","EPOCH":"2026-05-27T06:47:10.542624","MEAN_MOTION":13.16593067,"ECCENTRICITY":0.000239,"INCLINATION":87.9105,"RA_OF_ASC_NODE":232.9247,"ARG_OF_PERICENTER":104.7197,"MEAN_ANOMALY":255.4199,"EPHEMERIS_TYPE":0,"CLASSIFICATION_TYPE":"U","NORAD_CAT_ID":56055,"ELEMENT_SET_NO":999,"REV_AT_EPOCH":15622,"BSTAR":-0.00022284000000000003,"MEAN_MOTION_DOT":-7.2e-07,"MEAN_MOTION_DDOT":0.0},{"OBJECT_NAME":"ONEWEB-0554","OBJECT_ID":"2023-043L","EPOCH":"2026-05-27T06:28:56.754912","MEAN_MOTION":13.16593527,"ECCENTRICITY":0.0002256,"INCLINATION":87.9103,"RA_OF_ASC_NODE":232.9363,"ARG_OF_PERICENTER":95.2376,"MEAN_ANOMALY":264.9013,"EPHEMERIS_TYPE":0,"CLASSIFICATION_TYPE":"U","NORAD_CAT_ID":56056,"ELEMENT_SET_NO":999,"REV_AT_EPOCH":15620,"BSTAR":-0.0001872,"MEAN_MOTION_DOT":-5.9e-07,"MEAN_MOTION_DDOT":0.0},{"OBJECT_NAME":"ONEWEB-0555","OBJECT_ID":"2023-043M","EPOCH":"2026-05-27T05:34:14.133792","MEAN_MOTION":13.16595534,"ECCENTRICITY":0.0002525,"INCLINATION":87.9106,"RA_OF_ASC_NODE":232.9316,"ARG_OF_PERICENTER":109.5516,"MEAN_ANOMALY":250.5888,"EPHEMERIS_TYPE":0,"CLASSIFICATION_TYPE":"U","NORAD_CAT_ID":56057,"ELEMENT_SET_NO":999,"REV_AT_EPOCH":15620,"BSTAR":0.00029656,"MEAN_MOTION_DOT":1.26e-06,"MEAN_MOTION_DDOT":0.0},{"OBJECT_NAME":"ONEWEB-0557","OBJECT_ID":"2023-043N","EPOCH":"2026-05-27T05:54:43.869312","MEAN_MOTION":13.1659487,"ECCENTRICITY":0.0003281,"INCLINATION":87.9108,"RA_OF_ASC_NODE":232.9388,"ARG_OF_PERICENTER":93.9027,"MEAN_ANOMALY":266.248,"EPHEMERIS_TYPE":0,"CLASSIFICATION_TYPE":"U","NORAD_CAT_ID":56058,"ELEMENT_SET_NO":999,"REV_AT_EPOCH":15620,"BSTAR":-0.00032,"MEAN_MOTION_DOT":-1.09e-06,"MEAN_MOTION_DDOT":0.0},{"OBJECT_NAME":"ONEWEB-0558","OBJECT_ID":"2023-043P","EPOCH":"2026-05-27T05:58:42.532896","MEAN_MOTION":13.2182614,"ECCENTRICITY":0.00018,"INCLINATION":87.9255,"RA_OF_ASC_NODE":248.1444,"ARG_OF_PERICENTER":108.5587,"MEAN_ANOMALY":251.5742,"EPHEMERIS_TYPE":0,"CLASSIFICATION_TYPE":"U","NORAD_CAT_ID":56059,"ELEMENT_SET_NO":999,"REV_AT_EPOCH":15547,"BSTAR":0.00022747000000000002,"MEAN_MOTION_DOT":1.07e-06,"MEAN_MOTION_DDOT":0.0}]