ONEWEB-0675             
1 55834U 23029AQ  26146.97854049 -.00000068  00000+0 -20312-3 0  9992
2 55834  87.9151 309.2054 0001766 103.9614 256.1716 13.19726337156120
ONEWEB-0720             
1 55835U 23029AR  26146.97063602 -.00000021  00000+0 -85218-4 0  9996
2 55835  87.9151 309.2072 0001524  87.9103 272.2204 13.19726329156040
ONEWEB-0537             
1 56046U 23043A   26147.29542862  .00000029  00000+0  41867-4 0  9991
2 56046  87.9103 232.9197 0002104 104.7658 255.3706 13.16593379156212
ONEWEB-0538             
1 56047U 23043B   26147.28909903  .00000111  00000+0  25639-3 0  9994
2 56047  87.9105 232.9229 0001871 107.3680 252.7655 13.16593147156223
ONEWEB-0546             
1 56048U 23043C   26147.27643512 -.00000062  00000+0 -19650-3 0  9998
2 56048  87.9106 232.9249 0002545 111.6366 248.5036 13.16593648156216
ONEWEB-0547             
1 56049U 23043D   26147.28020590  .00000079  00000+0  16032-3 0  9992
2 56049  87.9256 248.1329 0001792 101.2544 258.8792 13.21824467155468
ONEWEB-0548             
1 56050U 23043E   26147.30098006  .00000106  00000+0  24471-3 0  9991
2 56050  87.9103 232.9173 0002310  90.9239 269.2157 13.16595046156218
ONEWEB-0549             
1 56051U 23043F   26147.27432391 -.00000084  00000+0 -23605-3 0  9992
2 56051  87.9251 248.1419 0001715 109.2024 250.9296 13.21827619155466
ONEWEB-0550             
1 56052U 23043G   26147.26088031 -.00000018  00000+0 -76076-4 0  9998
2 56052  87.9255 248.1419 0002031  94.0495 266.0871 13.21824156155466
ONEWEB-0551             
1 56053U 23043H   26147.23946898  .00000150  00000+0  36417-3 0  9999
2 56053  87.8991 263.4006 0001595 104.9013 255.2295 13.15548716153642
ONEWEB-0552             
1 56054U 23043J   26147.25584105  .00000145  00000+0  31971-3 0  9995
2 56054  87.9252 248.1489 0001812  95.7235 264.4105 13.21826387155468
ONEWEB-0553             
1 56055U 23043K   26147.28276091 -.00000072  00000+0 -22284-3 0  9999
2 56055  87.9105 232.9247 0002390 104.7197 255.4199 13.16593067156227
ONEWEB-0554             
1 56056U 23043L   26147.27010133 -.00000059  00000+0 -18720-3 0  9997
2 56056  87.9103 232.9363 0002256  95.2376 264.9013 13.16593527156208
ONEWEB-0555             
1 56057U 23043M   26147.23210803  .00000126  00000+0  29656-3 0  9993
2 56057  87.9106 232.9316 0002525 109.5516 250.5888 13.16595534156205
ONEWEB-0557             
1 56058U 23043N   26147.24634108 -.00000109  00000+0 -32000-3 0  9993
2 56058  87.9108 232.9388 0003281  93.9027 266.2480 13.16594870156204
ONEWEB-0558             
1 56059U 23043P   26147.24910339  .00000107  00000+0  22747-3 0  9990
2 56059  87.9255 248.1444 0001800 108.5587 251.5742 13.21826140155479
